[{"OBJECT_NAME":"BEIDOU-3 M19 (C41)","OBJECT_ID":"2019-090A","EPOCH":"2026-04-27T02:51:26.364096","MEAN_MOTION":1.86231407,"ECCENTRICITY":0.00197464,"INCLINATION":56.5169,"RA_OF_ASC_NODE":64.4771,"ARG_OF_PERICENTER":296.1881,"MEAN_ANOMALY":199.141,"EPHEMERIS_TYPE":0,"CLASSIFICATION_TYPE":"U","NORAD_CAT_ID":44864,"ELEMENT_SET_NO":999,"REV_AT_EPOCH":4328,"BSTAR":0,"MEAN_MOTION_DOT":-4.6e-7,"MEAN_MOTION_DDOT":0},{"OBJECT_NAME":"BEIDOU-3 M20 (C42)","OBJECT_ID":"2019-090B","EPOCH":"2026-04-26T09:49:20.534880","MEAN_MOTION":1.86231167,"ECCENTRICITY":0.0017474,"INCLINATION":56.518,"RA_OF_ASC_NODE":64.5353,"ARG_OF_PERICENTER":308.364,"MEAN_ANOMALY":160.6881,"EPHEMERIS_TYPE":0,"CLASSIFICATION_TYPE":"U","NORAD_CAT_ID":44865,"ELEMENT_SET_NO":999,"REV_AT_EPOCH":4325,"BSTAR":0,"MEAN_MOTION_DOT":-3.8e-7,"MEAN_MOTION_DDOT":0},{"OBJECT_NAME":"BEIDOU-3 G2 (C60)","OBJECT_ID":"2020-017A","EPOCH":"2026-04-27T00:12:55.980000","MEAN_MOTION":1.00271422,"ECCENTRICITY":0.00025506,"INCLINATION":2.7634,"RA_OF_ASC_NODE":46.5387,"ARG_OF_PERICENTER":348.2319,"MEAN_ANOMALY":263.5062,"EPHEMERIS_TYPE":0,"CLASSIFICATION_TYPE":"U","NORAD_CAT_ID":45344,"ELEMENT_SET_NO":999,"REV_AT_EPOCH":2274,"BSTAR":0,"MEAN_MOTION_DOT":-1.49e-6,"MEAN_MOTION_DDOT":0},{"OBJECT_NAME":"COSMOS 2545 (760)","OBJECT_ID":"2020-018A","EPOCH":"2026-04-27T01:48:13.773024","MEAN_MOTION":2.13102376,"ECCENTRICITY":0.0007174,"INCLINATION":64.386,"RA_OF_ASC_NODE":314.2154,"ARG_OF_PERICENTER":238.6817,"MEAN_ANOMALY":121.2732,"EPHEMERIS_TYPE":0,"CLASSIFICATION_TYPE":"U","NORAD_CAT_ID":45358,"ELEMENT_SET_NO":999,"REV_AT_EPOCH":4757,"BSTAR":0,"MEAN_MOTION_DOT":-3.2e-7,"MEAN_MOTION_DDOT":0},{"OBJECT_NAME":"BEIDOU-3 G3 (C61)","OBJECT_ID":"2020-040A","EPOCH":"2026-04-27T11:46:16.669344","MEAN_MOTION":1.00270098,"ECCENTRICITY":0.000378,"INCLINATION":2.3248,"RA_OF_ASC_NODE":67.2965,"ARG_OF_PERICENTER":329.9684,"MEAN_ANOMALY":105.3197,"EPHEMERIS_TYPE":0,"CLASSIFICATION_TYPE":"U","NORAD_CAT_ID":45807,"ELEMENT_SET_NO":999,"REV_AT_EPOCH":2156,"BSTAR":0,"MEAN_MOTION_DOT":-3.61e-6,"MEAN_MOTION_DDOT":0},{"OBJECT_NAME":"GPS BIII-3  (PRN 23)","OBJECT_ID":"2020-041A","EPOCH":"2026-04-27T02:21:53.578656","MEAN_MOTION":2.00559759,"ECCENTRICITY":0.00622184,"INCLINATION":56.6387,"RA_OF_ASC_NODE":30.9255,"ARG_OF_PERICENTER":205.0319,"MEAN_ANOMALY":313.2798,"EPHEMERIS_TYPE":0,"CLASSIFICATION_TYPE":"U","NORAD_CAT_ID":45854,"ELEMENT_SET_NO":999,"REV_AT_EPOCH":4301,"BSTAR":0,"MEAN_MOTION_DOT":-1.06e-6,"MEAN_MOTION_DDOT":0},{"OBJECT_NAME":"GALAXY 30 (WAAS/PRN 135)","OBJECT_ID":"2020-056C","EPOCH":"2026-04-27T00:57:06.743232","MEAN_MOTION":1.00271333,"ECCENTRICITY":0.0002527,"INCLINATION":0.0126,"RA_OF_ASC_NODE":236.3465,"ARG_OF_PERICENTER":172.8147,"MEAN_ANOMALY":55.1468,"EPHEMERIS_TYPE":0,"CLASSIFICATION_TYPE":"U","NORAD_CAT_ID":46114,"ELEMENT_SET_NO":999,"REV_AT_EPOCH":2078,"BSTAR":0,"MEAN_MOTION_DOT":0,"MEAN_MOTION_DDOT":0},{"OBJECT_NAME":"COSMOS 2547 (705K)","OBJECT_ID":"2020-075A","EPOCH":"2026-04-27T06:20:27.869280","MEAN_MOTION":2.13100275,"ECCENTRICITY":0.0008364,"INCLINATION":64.5969,"RA_OF_ASC_NODE":194.1741,"ARG_OF_PERICENTER":236.7857,"MEAN_ANOMALY":123.1845,"EPHEMERIS_TYPE":0,"CLASSIFICATION_TYPE":"U","NORAD_CAT_ID":46805,"ELEMENT_SET_NO":999,"REV_AT_EPOCH":4282,"BSTAR":0,"MEAN_MOTION_DOT":-3.0e-8,"MEAN_MOTION_DDOT":0},{"OBJECT_NAME":"GPS BIII-4  (PRN 14)","OBJECT_ID":"2020-078A","EPOCH":"2026-04-22T22:15:39.157056","MEAN_MOTION":2.00564823,"ECCENTRICITY":0.0070939,"INCLINATION":53.9891,"RA_OF_ASC_NODE":213.0193,"ARG_OF_PERICENTER":205.6597,"MEAN_ANOMALY":155.6852,"EPHEMERIS_TYPE":0,"CLASSIFICATION_TYPE":"U","NORAD_CAT_ID":46826,"ELEMENT_SET_NO":999,"REV_AT_EPOCH":4040,"BSTAR":0,"MEAN_MOTION_DOT":-1.7e-7,"MEAN_MOTION_DDOT":0},{"OBJECT_NAME":"GPS BIII-5  (PRN 11)","OBJECT_ID":"2021-054A","EPOCH":"2026-04-27T09:58:18.990912","MEAN_MOTION":2.00572318,"ECCENTRICITY":0.0024041,"INCLINATION":55.1967,"RA_OF_ASC_NODE":334.5003,"ARG_OF_PERICENTER":229.8581,"MEAN_ANOMALY":317.6354,"EPHEMERIS_TYPE":0,"CLASSIFICATION_TYPE":"U","NORAD_CAT_ID":48859,"ELEMENT_SET_NO":999,"REV_AT_EPOCH":3573,"BSTAR":0,"MEAN_MOTION_DOT":-8.4e-7,"MEAN_MOTION_DDOT":0},{"OBJECT_NAME":"QZS-1R (QZSS/PRN 196)","OBJECT_ID":"2021-096A","EPOCH":"2026-04-27T05:18:38.509920","MEAN_MOTION":1.00272987,"ECCENTRICITY":0.0751436,"INCLINATION":37.3604,"RA_OF_ASC_NODE":80.3327,"ARG_OF_PERICENTER":270.8549,"MEAN_ANOMALY":79.3818,"EPHEMERIS_TYPE":0,"CLASSIFICATION_TYPE":"U","NORAD_CAT_ID":49336,"ELEMENT_SET_NO":999,"REV_AT_EPOCH":1649,"BSTAR":0,"MEAN_MOTION_DOT":-2.37e-6,"MEAN_MOTION_DDOT":0},{"OBJECT_NAME":"GSAT0223 (GALILEO 27)","OBJECT_ID":"2021-116A","EPOCH":"2026-04-26T22:52:21.759168","MEAN_MOTION":1.70475733,"ECCENTRICITY":6.033e-5,"INCLINATION":57.1768,"RA_OF_ASC_NODE":343.0587,"ARG_OF_PERICENTER":260.856,"MEAN_ANOMALY":95.413,"EPHEMERIS_TYPE":0,"CLASSIFICATION_TYPE":"U","NORAD_CAT_ID":49809,"ELEMENT_SET_NO":999,"REV_AT_EPOCH":2730,"BSTAR":0,"MEAN_MOTION_DOT":-9.1e-7,"MEAN_MOTION_DDOT":0},{"OBJECT_NAME":"GSAT0224 (GALILEO 28)","OBJECT_ID":"2021-116B","EPOCH":"2026-04-24T17:19:56.422848","MEAN_MOTION":1.70475626,"ECCENTRICITY":6.258e-5,"INCLINATION":57.1774,"RA_OF_ASC_NODE":343.118,"ARG_OF_PERICENTER":14.3979,"MEAN_ANOMALY":165.3634,"EPHEMERIS_TYPE":0,"CLASSIFICATION_TYPE":"U","NORAD_CAT_ID":49810,"ELEMENT_SET_NO":999,"REV_AT_EPOCH":2729,"BSTAR":0,"MEAN_MOTION_DOT":-8.9e-7,"MEAN_MOTION_DDOT":0},{"OBJECT_NAME":"COSMOS 2557 (706K)","OBJECT_ID":"2022-075A","EPOCH":"2026-04-26T23:01:53.340960","MEAN_MOTION":2.13101838,"ECCENTRICITY":0.00101962,"INCLINATION":64.3278,"RA_OF_ASC_NODE":316.2899,"ARG_OF_PERICENTER":281.3644,"MEAN_ANOMALY":78.549,"EPHEMERIS_TYPE":0,"CLASSIFICATION_TYPE":"U","NORAD_CAT_ID":52984,"ELEMENT_SET_NO":999,"REV_AT_EPOCH":2962,"BSTAR":0,"MEAN_MOTION_DOT":-3.3e-7,"MEAN_MOTION_DDOT":0},{"OBJECT_NAME":"COSMOS 2559 (707K)","OBJECT_ID":"2022-130A","EPOCH":"2026-04-25T20:10:29.959392","MEAN_MOTION":2.13101453,"ECCENTRICITY":0.00113649,"INCLINATION":64.3018,"RA_OF_ASC_NODE":316.4145,"ARG_OF_PERICENTER":176.1051,"MEAN_ANOMALY":183.932,"EPHEMERIS_TYPE":0,"CLASSIFICATION_TYPE":"U","NORAD_CAT_ID":54031,"ELEMENT_SET_NO":999,"REV_AT_EPOCH":2757,"BSTAR":0,"MEAN_MOTION_DOT":-2.9e-7,"MEAN_MOTION_DDOT":0},{"OBJECT_NAME":"COSMOS 2564 (761)","OBJECT_ID":"2022-161A","EPOCH":"2026-04-27T02:12:12.015936","MEAN_MOTION":2.13101958,"ECCENTRICITY":0.00110532,"INCLINATION":64.739,"RA_OF_ASC_NODE":194.4071,"ARG_OF_PERICENTER":219.74,"MEAN_ANOMALY":140.2284,"EPHEMERIS_TYPE":0,"CLASSIFICATION_TYPE":"U","NORAD_CAT_ID":54377,"ELEMENT_SET_NO":999,"REV_AT_EPOCH":2654,"BSTAR":0,"MEAN_MOTION_DOT":-5.0e-8,"MEAN_MOTION_DDOT":0},{"OBJECT_NAME":"GPS BIII-6  (PRN 28)","OBJECT_ID":"2023-009A","EPOCH":"2026-04-26T03:49:32.691360","MEAN_MOTION":2.00574943,"ECCENTRICITY":0.00056152,"INCLINATION":55.1147,"RA_OF_ASC_NODE":150.5635,"ARG_OF_PERICENTER":315.2799,"MEAN_ANOMALY":82.808,"EPHEMERIS_TYPE":0,"CLASSIFICATION_TYPE":"U","NORAD_CAT_ID":55268,"ELEMENT_SET_NO":999,"REV_AT_EPOCH":2420,"BSTAR":0,"MEAN_MOTION_DOT":6.0e-7,"MEAN_MOTION_DDOT":0}]
